[Satellite]
VERSION=1.1
NAME=PERSEUS-M1
NICKNAME=PERSEUS-M1
TLE1=1 40039U 14033AF  20157.75842653  .00000070  00000-0  14189-4 0  9996
TLE2=2 40039  97.8859  72.9804 0014092 354.8091   5.2976 14.86163947322836
STATUS=0
